      2.10          N: GNSS NAV DATA                        RINEX VERSION / TYPE
fic2rin                                 03/02/2019 00:19:11 PGM / RUN BY / DATE
                                                            END OF HEADER
27 19  3  1 10  0  0.0-7.712747901678e-05-7.617018127348e-12 0.000000000000e+00
    3.100000000000e+01 3.696875000000e+01 4.195174745867e-09 1.305263298004e+00
    1.868233084679e-06 6.767795886844e-03 3.688037395477e-06 5.153639209747e+03
    4.680000000000e+05 1.676380634308e-08-2.408538418824e+00 9.685754776001e-08
    9.784902772248e-01 3.165937500000e+02 4.360562109429e-01-8.184983794572e-09
    1.239337337660e-10 1.000000000000e+00 2.042000000000e+03 0.000000000000e+00
    2.400000000000e+00 0.000000000000e+00 1.396983861923e-09 3.100000000000e+01
    4.608000000000e+05 4.000000000000e+00
30 19  3  1 10  0  0.0-6.084842607379e-05-6.480149750132e-12 0.000000000000e+00
    8.500000000000e+01 8.906250000000e+00 4.934134097919e-09-1.480167555537e+00
    3.296881914139e-07 3.693921607919e-03 7.787719368935e-06 5.153617038727e+03
    4.680000000000e+05-9.313225746155e-09 1.828478779801e+00-7.636845111847e-08
    9.412898562722e-01 2.194687500000e+02-3.019547541030e+00-8.124981295227e-09
   -4.153744448700e-10 1.000000000000e+00 2.042000000000e+03 0.000000000000e+00
    2.400000000000e+00 0.000000000000e+00 3.725290298462e-09 8.500000000000e+01
    4.608000000000e+05 4.000000000000e+00
21 19  3  1 10  0  0.0-2.410076558590e-04 7.275957614183e-12 0.000000000000e+00
    8.700000000000e+01-9.453125000000e+01 4.699124308818e-09-2.642194604571e+00
   -4.770234227180e-06 2.477847854607e-02 4.194676876068e-06 5.153790439606e+03
    4.680000000000e+05 2.756714820862e-07-1.414504740874e+00 2.142041921616e-07
    9.470996949839e-01 2.818125000000e+02-1.471241376549e+00-7.912115285646e-09
    7.107438910502e-11 1.000000000000e+00 2.042000000000e+03 0.000000000000e+00
    2.400000000000e+00 0.000000000000e+00-1.024454832077e-08 8.700000000000e+01
    4.608000000000e+05 4.000000000000e+00
19 19  3  1 10  0  0.0-3.472217358649e-04 4.206412995700e-12 0.000000000000e+00
    7.000000000000e+01 1.165625000000e+01 4.148387082688e-09-2.229222224191e+00
    6.612390279770e-07 9.416102082469e-03 2.522021532059e-06 5.153625661850e+03
    4.680000000000e+05 7.636845111847e-08-2.306476961795e+00 3.911554813385e-08
    9.816564488799e-01 3.343437500000e+02 1.351235113898e+00-8.011762293487e-09
    2.425101015191e-10 1.000000000000e+00 2.042000000000e+03 0.000000000000e+00
    2.400000000000e+00 0.000000000000e+00-1.536682248116e-08 7.000000000000e+01
    4.608000000000e+05 4.000000000000e+00
18 19  3  1 10  0  0.0 3.066379576921e-05 3.637978807092e-12 0.000000000000e+00
    3.500000000000e+01-7.781250000000e+01 4.893060958486e-09-1.106684910760e+00
   -3.771856427193e-06 1.506842370145e-02 5.478039383888e-06 5.153729221344e+03
    4.680000000000e+05-1.247972249985e-07-1.405838447820e+00 3.241002559662e-07
    9.527891706476e-01 2.728125000000e+02 1.377164947716e+00-8.458923776700e-09
   -6.643133856047e-11 1.000000000000e+00 2.042000000000e+03 0.000000000000e+00
    2.400000000000e+00 0.000000000000e+00-6.053596735001e-09 3.500000000000e+01
    4.608000000000e+05 4.000000000000e+00
16 19  3  1 10  0  0.0-2.239737659693e-05-2.501110429876e-12 0.000000000000e+00
    1.000000000000e+02 7.068750000000e+01 3.723726536728e-09 2.157255051840e+00
    3.622844815254e-06 1.065450266469e-02 8.841976523399e-06 5.153789979935e+03
    4.680000000000e+05-2.123415470123e-07 2.916224984247e+00-4.842877388000e-08
    9.843914166538e-01 2.234062500000e+02 5.456826046137e-01-7.677105496545e-09
   -1.821504444400e-11 1.000000000000e+00 2.042000000000e+03 0.000000000000e+00
    2.400000000000e+00 0.000000000000e+00-1.071020960808e-08 1.000000000000e+02
    4.608000000000e+05 4.000000000000e+00
15 19  3  1 10  0  0.0-3.256425261497e-04 1.818989403546e-12 0.000000000000e+00
    6.000000000000e+01 1.740625000000e+01 5.658807140603e-09 4.142212355085e-01
    1.169741153717e-06 1.123028527945e-02 6.588175892830e-06 5.153637649536e+03
    4.680000000000e+05-5.215406417847e-08 6.444089317272e-01 1.545995473862e-07
    9.282184330749e-01 2.331250000000e+02 7.656093627030e-01-8.655003372774e-09
    7.857470152314e-11 1.000000000000e+00 2.042000000000e+03 0.000000000000e+00
    2.400000000000e+00 0.000000000000e+00-1.071020960808e-08 6.000000000000e+01
    4.608000000000e+05 4.000000000000e+00
32 19  3  1 10  0  0.0-2.028974704444e-04 1.887201506179e-11 0.000000000000e+00
    8.700000000000e+01 1.940625000000e+01 4.888417907942e-09 2.030272210404e+00
    1.005828380585e-06 2.641441416927e-03 6.716698408127e-06 5.153755611420e+03
    4.680000000000e+05-1.098960638046e-07 7.285018560664e-01 3.539025783539e-08
    9.569312271581e-01 2.496875000000e+02-2.607430979429e+00-8.160697068646e-09
    1.439345668810e-10 1.000000000000e+00 2.042000000000e+03 0.000000000000e+00
    2.400000000000e+00 0.000000000000e+00 4.656612873077e-10 8.700000000000e+01
    4.608000000000e+05 4.000000000000e+00
17 19  3  1 10  0  0.0 1.686858013272e-05 5.684341886081e-12 0.000000000000e+00
    1.000000000000e+02 1.825000000000e+01 4.174102439550e-09 1.248891503858e+00
    8.530914783478e-07 1.294460275676e-02 3.414228558540e-06 5.153700740814e+03
    4.680000000000e+05-2.849847078323e-07-2.352901169012e+00-1.974403858185e-07
    9.839265993037e-01 3.243437500000e+02-1.718715974871e+00-8.255343868208e-09
    1.778645516296e-10 1.000000000000e+00 2.042000000000e+03 0.000000000000e+00
    3.400000000000e+00 0.000000000000e+00-1.117587089539e-08 1.000000000000e+02
    4.608000000000e+05 4.000000000000e+00
12 19  3  1 10  0  0.0 2.639098092914e-04-3.183231456205e-12 0.000000000000e+00
    6.400000000000e+01 8.225000000000e+01 3.709440227361e-09-2.212799665291e+00
    4.233792424202e-06 7.510549505241e-03 8.769333362579e-06 5.153695549011e+03
    4.680000000000e+05 6.332993507385e-08 2.897322956216e+00-9.313225746155e-08
    9.840159104524e-01 2.220625000000e+02 1.037734312062e+00-7.565315125741e-09
    6.000249934494e-11 1.000000000000e+00 2.042000000000e+03 0.000000000000e+00
    2.400000000000e+00 0.000000000000e+00-1.257285475731e-08 6.400000000000e+01
    4.608000000000e+05 4.000000000000e+00
29 19  3  1 10  0  0.0 2.595474943519e-04-8.753886504564e-12 0.000000000000e+00
    5.900000000000e+01 3.012500000000e+01 4.050883021252e-09 2.126217675078e+00
    1.570209860802e-06 7.498585619032e-04 3.265216946602e-06 5.153558214188e+03
    4.680000000000e+05-7.450580596924e-09-2.341896045919e+00 3.166496753693e-08
    9.853404964610e-01 3.298125000000e+02 1.449452057325e+00-8.074979212439e-09
    2.117945363783e-10 1.000000000000e+00 2.042000000000e+03 0.000000000000e+00
    2.400000000000e+00 0.000000000000e+00-1.024454832077e-08 5.900000000000e+01
    4.608000000000e+05 4.000000000000e+00
20 19  3  1 10  0  0.0 5.226796492934e-04 3.410605131648e-13 0.000000000000e+00
    8.200000000000e+01-5.387500000000e+01 5.158786312728e-09-1.196064218316e+00
   -2.816319465637e-06 4.386443295516e-03 9.922310709953e-06 5.153678270340e+03
    4.680000000000e+05-2.607703208923e-08-4.287067577458e-01-6.891787052155e-08
    9.304039668541e-01 1.746250000000e+02 2.297290242948e+00-8.283202171476e-09
    2.371527355062e-10 1.000000000000e+00 2.042000000000e+03 0.000000000000e+00
    2.400000000000e+00 0.000000000000e+00-8.381903171539e-09 8.200000000000e+01
    4.608000000000e+05 4.000000000000e+00
 5 19  3  1  9 59 44.0 1.149252057076e-06 0.000000000000e+00 0.000000000000e+00
    0.000000000000e+00-4.256250000000e+01 4.778056168075e-09 2.067342718379e+00
   -2.175569534302e-06 5.542496452108e-03 1.020543277264e-05 5.153639822006e+03
    4.679840000000e+05-1.452863216400e-07-3.355673206287e-01-2.235174179077e-08
    9.496671718039e-01 1.786250000000e+02 7.112651393680e-01-7.974975046864e-09
    3.046555472693e-10 1.000000000000e+00 2.042000000000e+03 0.000000000000e+00
    2.400000000000e+00 0.000000000000e+00-1.117587089539e-08 0.000000000000e+00
    4.621500000000e+05 4.000000000000e+00
13 19  3  1  9 59 44.0-7.329275831580e-05 1.364242052659e-12 0.000000000000e+00
    5.000000000000e+00 1.265625000000e+01 4.721982403806e-09 2.032899460594e-01
    7.953494787216e-07 3.706894814968e-03 6.467103958130e-06 5.153657426834e+03
    4.679840000000e+05-1.117587089539e-08 8.581098849782e-01 2.235174179077e-08
    9.680544823492e-01 2.572187500000e+02 1.361222177670e+00-8.101766042504e-09
    1.035757429169e-11 1.000000000000e+00 2.042000000000e+03 0.000000000000e+00
    2.400000000000e+00 0.000000000000e+00-1.117587089539e-08 5.000000000000e+00
    4.624500000000e+05 4.000000000000e+00
20 19  3  1  9 59 44.0 5.226791836321e-04 3.410605131648e-13 0.000000000000e+00
    1.000000000000e+00-5.387500000000e+01 5.158786312728e-09-1.198398614250e+00
   -2.818182110786e-06 4.386443877593e-03 9.924173355103e-06 5.153678268433e+03
    4.679840000000e+05-2.607703208923e-08-4.287066143798e-01-6.891787052155e-08
    9.304039551507e-01 1.746250000000e+02 2.297290929057e+00-8.283202171476e-09
    2.375098932404e-10 1.000000000000e+00 2.042000000000e+03 0.000000000000e+00
    2.400000000000e+00 0.000000000000e+00-8.381903171539e-09 1.000000000000e+00
    4.658100000000e+05 4.000000000000e+00
16 19  3  1  9 59 44.0-2.239691093564e-05-2.501110429876e-12 0.000000000000e+00
    1.000000000000e+00 7.068750000000e+01 3.723726536728e-09 2.154921592174e+00
    3.622844815254e-06 1.065450080205e-02 8.841976523399e-06 5.153789981842e+03
    4.679840000000e+05-2.123415470123e-07 2.916225111521e+00-4.842877388000e-08
    9.843914327459e-01 2.234062500000e+02 5.456824934319e-01-7.677105496545e-09
   -1.857220217820e-11 1.000000000000e+00 2.042000000000e+03 0.000000000000e+00
    2.400000000000e+00 0.000000000000e+00-1.071020960808e-08 1.000000000000e+00
    4.659300000000e+05 4.000000000000e+00
